{"type":"FeatureCollection","features":[{"type":"Feature","properties":{"key":"guba-khachmaz economic region - total","name":"Quba-Xaçmaz","district_count":5},"geometry":{"type":"Polygon","coordinates":[[[49.16363,41.1428],[49.17184,41.10382],[49.20978,41.0268],[49.23635,40.99654],[49.29985,40.95105],[49.32426,40.91762],[49.36318,40.89235],[49.32625,40.87113],[49.22414,40.88021],[49.15267,40.91101],[49.12291,40.91529],[49.10092,40.92956],[49.09821,40.96872],[49.08402,40.98116],[49.04529,40.97234],[49.0362,40.96014],[49.0319,40.93077],[49.01411,40.92208],[48.94903,40.91048],[48.88191,40.91041],[48.88112,40.90369],[48.83638,40.8734],[48.7913,40.87075],[48.73028,40.90553],[48.72923,40.91165],[48.60326,40.9366],[48.5586,40.95694],[48.45557,40.97095],[48.42152,40.98981],[48.39414,40.98925],[48.26844,41.01723],[48.20045,41.0388],[48.18722,41.0484],[48.09743,41.07369],[48.06354,41.09303],[48.00353,41.11453],[47.96276,41.15534],[47.96343,41.18301],[47.89109,41.18589],[47.84955,41.21726],[47.87724,41.21819],[47.8988,41.23327],[47.89946,41.2863],[47.89477,41.29172],[47.95915,41.32203],[47.96326,41.32904],[47.95094,41.35092],[47.9764,41.35855],[47.99393,41.37279],[48.00022,41.38166],[48.00461,41.43011],[48.03308,41.43546],[48.04267,41.44329],[48.05205,41.45795],[48.05034,41.46985],[48.07943,41.50042],[48.08799,41.49399],[48.10253,41.49624],[48.12906,41.51361],[48.20779,41.51811],[48.27197,41.56311],[48.35882,41.60301],[48.38556,41.62859],[48.42367,41.65266],[48.47314,41.70829],[48.51111,41.73722],[48.55245,41.7852],[48.55437,41.79546],[48.57636,41.81251],[48.58353,41.83779],[48.5943,41.84274],[48.65134,41.80399],[48.7385,41.72045],[48.77312,41.67846],[48.93547,41.52269],[49.04736,41.39812],[49.11332,41.30413],[49.13449,41.25942],[49.14707,41.18014],[49.16363,41.1428]]]}},{"type":"Feature","properties":{"key":"absheron-khizi economic region - total","name":"Abşeron-Xızı","district_count":3},"geometry":{"type":"MultiPolygon","coordinates":[[[[49.53529,40.64953],[49.56326,40.62803],[49.62768,40.61347],[49.66661,40.61292],[49.68252,40.60447],[49.68582,40.59083],[49.69655,40.58164],[49.73873,40.56847],[49.72932,40.5554],[49.72681,40.53881],[49.73267,40.53211],[49.75169,40.5294],[49.77637,40.54248],[49.80396,40.54296],[49.83784,40.53307],[49.86564,40.51647],[49.90851,40.51488],[49.92126,40.50131],[49.90934,40.49269],[49.87066,40.48344],[49.79267,40.47785],[49.76967,40.44958],[49.70047,40.45805],[49.68646,40.47274],[49.66681,40.47769],[49.56516,40.47524],[49.55164,40.47115],[49.4958,40.42668],[49.45997,40.43314],[49.44508,40.42317],[49.43939,40.38875],[49.44666,40.37028],[49.44264,40.3582],[49.44924,40.30524],[49.43747,40.27204],[49.43424,40.23443],[49.43112,40.22626],[49.39381,40.20569],[49.39296,40.16462],[49.35363,40.12298],[49.34616,40.07358],[49.33267,40.04005],[49.31544,40.02217],[49.31773,39.99766],[49.29448,39.99037],[49.26433,40.01532],[49.25399,40.05461],[49.22327,40.08946],[49.21264,40.13554],[49.19168,40.15581],[49.16728,40.16639],[49.02486,40.17894],[48.97942,40.23105],[48.87584,40.307],[48.86981,40.32041],[48.88158,40.34194],[48.89077,40.3415],[48.89651,40.33271],[48.95164,40.30986],[48.97002,40.31184],[49.03692,40.37182],[49.0619,40.38521],[49.09549,40.38828],[49.14536,40.4285],[49.22843,40.4636],[49.25305,40.46627],[49.24882,40.47974],[49.29219,40.49251],[49.29901,40.51734],[49.24207,40.52369],[49.22439,40.53243],[49.17458,40.5803],[49.16113,40.60479],[49.13225,40.62396],[49.09041,40.63212],[49.04109,40.65298],[48.97784,40.71763],[48.89889,40.76385],[48.87149,40.77616],[48.83314,40.77942],[48.83264,40.80096],[48.80624,40.8318],[48.80674,40.84144],[48.82138,40.86918],[48.84758,40.87869],[48.88112,40.90369],[48.88191,40.91041],[48.94903,40.91048],[49.01411,40.92208],[49.0319,40.93077],[49.0362,40.96014],[49.04529,40.97234],[49.08402,40.98116],[49.09821,40.96872],[49.10092,40.92956],[49.12291,40.91529],[49.15267,40.91101],[49.22414,40.88021],[49.3138,40.87094],[49.32625,40.87113],[49.36318,40.89235],[49.41491,40.84787],[49.48465,40.83463],[49.51802,40.81874],[49.54392,40.7896],[49.51652,40.7523],[49.51214,40.71476],[49.53529,40.64953]]],[[[49.67393,40.43355],[49.74847,40.42735],[49.76425,40.39919],[49.76403,40.38729],[49.7465,40.38126],[49.72852,40.35292],[49.68884,40.36717],[49.66275,40.34554],[49.64586,40.34185],[49.63731,40.35526],[49.64016,40.37069],[49.67173,40.40456],[49.67393,40.43355]]]]}},{"type":"Feature","properties":{"key":"baku city - total","name":"Bakı","district_count":1},"geometry":{"type":"MultiPolygon","coordinates":[[[[49.31773,39.99766],[49.31544,40.02217],[49.33267,40.04005],[49.34616,40.07358],[49.35363,40.12298],[49.39296,40.16462],[49.39381,40.20569],[49.43112,40.22626],[49.43424,40.23443],[49.43747,40.27204],[49.44924,40.30524],[49.44264,40.3582],[49.44666,40.37028],[49.43939,40.38875],[49.44508,40.42317],[49.45997,40.43314],[49.4958,40.42668],[49.55164,40.47115],[49.56516,40.47524],[49.66681,40.47769],[49.68646,40.47274],[49.70047,40.45805],[49.76967,40.44958],[49.79267,40.47785],[49.87066,40.48344],[49.90934,40.49269],[49.92126,40.50131],[49.90851,40.51488],[49.86564,40.51647],[49.83784,40.53307],[49.80396,40.54296],[49.77637,40.54248],[49.75169,40.5294],[49.73267,40.53211],[49.72681,40.53881],[49.73873,40.56847],[49.73417,40.57313],[49.78014,40.57691],[49.82756,40.56787],[49.9064,40.57567],[49.98965,40.59395],[49.99889,40.58794],[50.02116,40.58742],[50.06878,40.59447],[50.06295,40.58481],[50.06638,40.57906],[50.114,40.52811],[50.21779,40.50327],[50.24348,40.48863],[50.25033,40.46509],[50.28185,40.44363],[50.29658,40.42478],[50.33323,40.40855],[50.36681,40.35825],[50.35653,40.30241],[50.36892,40.27543],[50.36583,40.25909],[50.37571,40.24414],[50.37549,40.22818],[50.36694,40.23221],[50.3573,40.25775],[50.3573,40.2784],[50.33932,40.30375],[50.30161,40.3254],[50.24088,40.34604],[50.11663,40.36774],[50.08996,40.36177],[50.08178,40.34734],[50.07801,40.3527],[50.0693,40.34837],[50.04739,40.35586],[50.00581,40.34026],[49.9575,40.33744],[49.91683,40.36435],[49.87624,40.37294],[49.85116,40.36945],[49.85011,40.35604],[49.85905,40.34476],[49.84572,40.33859],[49.82906,40.30275],[49.78644,40.30342],[49.73084,40.28072],[49.69015,40.27736],[49.65262,40.24847],[49.60372,40.23355],[49.48971,40.18271],[49.47217,40.16358],[49.47656,40.1396],[49.49073,40.11341],[49.43706,40.0994],[49.42864,40.08822],[49.42952,40.06612],[49.44275,40.0358],[49.48471,40.01737],[49.49285,40.0042],[49.48385,39.99465],[49.46073,39.99004],[49.44103,39.9762],[49.41491,39.93897],[49.41363,39.90962],[49.42348,39.89676],[49.42887,39.85675],[49.4001,39.83013],[49.38655,39.7912],[49.39497,39.73963],[49.42163,39.70035],[49.36252,39.67732],[49.35077,39.71295],[49.34967,39.88167],[49.31432,39.93042],[49.31816,39.95742],[49.30332,39.98916],[49.31773,39.99766]],[[49.67393,40.43355],[49.67173,40.40456],[49.64016,40.37069],[49.63731,40.35526],[49.64586,40.34185],[49.66275,40.34554],[49.68884,40.36717],[49.72852,40.35292],[49.7465,40.38126],[49.76403,40.38729],[49.76425,40.39919],[49.74847,40.42735],[49.67393,40.43355]]],[[[50.53622,40.2979],[50.52899,40.31267],[50.54044,40.32535],[50.51935,40.34357],[50.52748,40.35279],[50.55581,40.35394],[50.62029,40.31936],[50.54978,40.29537],[50.53622,40.2979]]],[[[50.32741,40.43665],[50.29968,40.47302],[50.325,40.48774],[50.33645,40.48337],[50.34488,40.47279],[50.34428,40.4378],[50.32741,40.43665]]]]}},{"type":"Feature","properties":{"key":"daghlig shirvan economic region - total","name":"Dağlıq Şirvan","district_count":4},"geometry":{"type":"Polygon","coordinates":[[[48.87149,40.77616],[48.97784,40.71763],[49.04109,40.65298],[49.09041,40.63212],[49.13225,40.62396],[49.16113,40.60479],[49.17458,40.5803],[49.22439,40.53243],[49.24207,40.52369],[49.29901,40.51734],[49.29219,40.49251],[49.24882,40.47974],[49.25305,40.46627],[49.22843,40.4636],[49.13048,40.42064],[49.09549,40.38828],[49.0619,40.38521],[49.03692,40.37182],[49.00936,40.3426],[48.96284,40.30942],[48.89651,40.33271],[48.89077,40.3415],[48.87675,40.33657],[48.85881,40.34676],[48.77188,40.35181],[48.76717,40.3302],[48.74849,40.30852],[48.69214,40.28706],[48.64423,40.31797],[48.60476,40.32212],[48.56438,40.34772],[48.51494,40.36099],[48.46568,40.31395],[48.45396,40.31203],[48.41463,40.34278],[48.4096,40.3575],[48.36692,40.38119],[48.36859,40.4375],[48.35771,40.45348],[48.33176,40.46179],[48.26648,40.45988],[48.22881,40.42982],[48.20537,40.43494],[48.20537,40.46819],[48.1811,40.47074],[48.13423,40.45156],[48.12084,40.4765],[48.12084,40.49056],[48.12251,40.511],[48.13674,40.5308],[48.13546,40.54151],[48.0981,40.54355],[48.07513,40.5289],[48.0573,40.53649],[48.0525,40.54747],[48.06004,40.56761],[48.08781,40.58983],[48.08781,40.61178],[48.07204,40.63032],[48.01582,40.65304],[47.97022,40.66166],[47.80257,40.6721],[47.77332,40.68402],[47.81604,40.72542],[47.83986,40.7732],[47.92366,40.81822],[47.95361,40.82301],[47.96264,40.83949],[47.96686,40.87404],[47.97379,40.88067],[48.00814,40.88479],[48.03255,40.89736],[48.03888,40.94399],[47.9976,40.96158],[47.99158,40.97676],[47.99467,41.00364],[48.01607,41.02248],[48.029,41.02248],[48.03883,41.00642],[48.05816,41.0506],[48.08814,41.07754],[48.26844,41.01723],[48.39414,40.98925],[48.42152,40.98981],[48.45557,40.97095],[48.5586,40.95694],[48.60326,40.9366],[48.72923,40.91165],[48.73028,40.90553],[48.7913,40.87075],[48.82138,40.86918],[48.80624,40.8318],[48.83264,40.80096],[48.83314,40.77942],[48.87149,40.77616]]]}},{"type":"Feature","properties":{"key":"shaki-zagatala economic region - total","name":"Şəki-Zaqatala","district_count":7},"geometry":{"type":"Polygon","coordinates":[[[47.75573,41.19241],[47.78425,41.18735],[47.79618,41.20536],[47.81364,41.2192],[47.82383,41.22004],[47.8511,41.21579],[47.89109,41.18589],[47.96343,41.18301],[47.96276,41.15534],[48.00353,41.11453],[48.06354,41.09303],[48.08814,41.07754],[48.05816,41.0506],[48.03883,41.00642],[48.029,41.02248],[48.01607,41.02248],[47.99795,41.01022],[47.99158,40.97676],[47.9976,40.96158],[48.03888,40.94399],[48.03647,40.90537],[48.0202,40.88982],[47.97379,40.88067],[47.96686,40.87404],[47.96264,40.83949],[47.95361,40.82301],[47.92366,40.81822],[47.83986,40.7732],[47.81604,40.72542],[47.79629,40.71031],[47.77965,40.68541],[47.66105,40.67191],[47.63154,40.65972],[47.57909,40.67954],[47.56752,40.7576],[47.55367,40.77084],[47.52061,40.76615],[47.49861,40.78002],[47.47178,40.78369],[47.44818,40.79552],[47.42403,40.78206],[47.36823,40.79878],[47.33282,40.79715],[47.23142,40.81794],[47.19171,40.84117],[47.16757,40.84117],[47.08977,40.88598],[47.07099,40.88598],[47.02056,40.90471],[46.97649,40.93564],[46.94902,40.92641],[46.86025,40.96883],[46.84696,40.966],[46.81857,40.98413],[46.78856,41.01625],[46.77336,41.04655],[46.76959,41.07606],[46.75885,41.08974],[46.72271,41.10784],[46.65531,41.1071],[46.65486,41.11908],[46.66264,41.12963],[46.65385,41.14329],[46.66801,41.16691],[46.66996,41.21561],[46.69927,41.24363],[46.72564,41.25358],[46.73687,41.28306],[46.72955,41.29595],[46.69341,41.30921],[46.69243,41.32541],[46.65824,41.35412],[46.65177,41.37491],[46.61271,41.38988],[46.53707,41.39717],[46.51769,41.41153],[46.46299,41.43341],[46.4383,41.46139],[46.33891,41.50064],[46.31172,41.5441],[46.30703,41.56218],[46.30797,41.57016],[46.33802,41.57343],[46.33364,41.5907],[46.26693,41.61519],[46.25761,41.61584],[46.24013,41.59966],[46.22775,41.59824],[46.21303,41.60753],[46.20459,41.62819],[46.20517,41.66468],[46.1775,41.71606],[46.17857,41.75708],[46.19848,41.76827],[46.2881,41.79275],[46.35815,41.83133],[46.37842,41.83532],[46.40323,41.874],[46.41256,41.91719],[46.42076,41.92144],[46.46764,41.91702],[46.48539,41.90359],[46.53933,41.88489],[46.54457,41.8757],[46.53979,41.83861],[46.55071,41.81682],[46.5605,41.8146],[46.57825,41.8175],[46.61649,41.84031],[46.64585,41.84542],[46.68887,41.83725],[46.72756,41.86583],[46.74485,41.86566],[46.77106,41.82086],[46.77055,41.80211],[46.79243,41.77848],[46.80462,41.76866],[46.82431,41.76608],[46.85181,41.72863],[46.87025,41.72161],[46.89057,41.73238],[46.90557,41.7305],[46.92839,41.70662],[46.92714,41.68413],[46.99965,41.64171],[47.00778,41.63233],[47.0012,41.59862],[47.01821,41.5857],[47.02861,41.56648],[47.05739,41.55374],[47.1051,41.5859],[47.12171,41.5826],[47.20961,41.47397],[47.21047,41.44833],[47.22967,41.43031],[47.22605,41.40282],[47.23329,41.39054],[47.25955,41.3835],[47.27041,41.33711],[47.29854,41.30751],[47.32957,41.30071],[47.34707,41.28773],[47.40243,41.26646],[47.41816,41.26376],[47.4513,41.27263],[47.46938,41.25694],[47.4968,41.26785],[47.50584,41.25398],[47.50404,41.22919],[47.5426,41.20143],[47.56159,41.20052],[47.56189,41.20803],[47.57786,41.21486],[47.60437,41.21645],[47.62155,41.23465],[47.66464,41.22237],[47.69417,41.22805],[47.72912,41.20507],[47.74208,41.18914],[47.75573,41.19241]]]}},{"type":"Feature","properties":{"key":"shirvan-salyan economic region - total","name":"Şirvan-Salyan","district_count":5},"geometry":{"type":"MultiPolygon","coordinates":[[[[49.15419,38.9913],[49.16221,39.01374],[49.19097,39.02993],[49.20135,39.06192],[49.21031,39.06082],[49.22021,39.02735],[49.18861,38.96148],[49.17211,38.9578],[49.15419,38.9913]]],[[[49.29027,39.55046],[49.30063,39.49027],[49.34021,39.44112],[49.40002,39.40101],[49.41114,39.35996],[49.45287,39.30118],[49.43676,39.28015],[49.39848,39.2844],[49.37978,39.28962],[49.32537,39.32945],[49.30243,39.33643],[49.28579,39.33154],[49.25296,39.28507],[49.24532,39.15004],[49.22688,39.10696],[49.20979,39.09329],[49.19945,39.10275],[49.21474,39.19345],[49.20394,39.20255],[49.16662,39.20534],[49.10276,39.23403],[49.06228,39.23438],[49.05014,39.24732],[49.03845,39.28228],[49.02406,39.29521],[48.99303,39.29067],[48.92827,39.25606],[48.89768,39.21864],[48.86575,39.20115],[48.85046,39.18015],[48.82888,39.16475],[48.79785,39.17245],[48.76861,39.16334],[48.72949,39.177],[48.72994,39.20255],[48.73983,39.22634],[48.73713,39.25886],[48.73444,39.27459],[48.72066,39.28731],[48.70886,39.31437],[48.70511,39.36108],[48.71289,39.39392],[48.73131,39.4129],[48.74005,39.43883],[48.69313,39.46084],[48.63978,39.40604],[48.64332,39.36126],[48.61953,39.33886],[48.59321,39.34279],[48.56638,39.35969],[48.55322,39.41586],[48.53956,39.42371],[48.51374,39.42214],[48.48793,39.38955],[48.40896,39.35694],[48.38011,39.33808],[48.35075,39.33925],[48.34367,39.34869],[48.34265,39.36716],[48.33461,39.37528],[48.37254,39.38066],[48.37457,39.3949],[48.34672,39.41282],[48.219,39.53392],[48.03236,39.69185],[47.96433,39.71455],[47.95846,39.72177],[47.96846,39.73839],[47.99346,39.74947],[48.0265,39.74779],[48.05433,39.73721],[48.15977,39.66063],[48.23934,39.61323],[48.2826,39.59659],[48.31456,39.59709],[48.34391,39.61138],[48.39369,39.6477],[48.40282,39.6692],[48.42588,39.69036],[48.44592,39.69842],[48.48321,39.68713],[48.49545,39.67595],[48.49684,39.66111],[48.50811,39.65283],[48.56326,39.65442],[48.60106,39.68027],[48.67159,39.66643],[48.68427,39.65458],[48.73807,39.64529],[48.76133,39.62677],[48.82423,39.64326],[48.87731,39.62494],[48.895,39.62836],[48.89595,39.63886],[48.88173,39.6562],[48.88678,39.66622],[48.92186,39.67598],[48.94587,39.69014],[48.9326,39.7548],[48.94966,39.78747],[48.94776,39.80063],[48.91585,39.82354],[48.90764,39.83888],[48.92493,39.87505],[48.88833,39.90059],[48.9065,39.93451],[48.8926,39.95961],[48.88079,39.95961],[48.84651,39.99179],[48.83965,40.01051],[48.81099,40.02733],[48.68351,40.0619],[48.67578,40.08849],[48.69155,40.12614],[48.67852,40.1343],[48.63292,40.15666],[48.50744,40.16297],[48.49476,40.16876],[48.48413,40.19295],[48.48653,40.26338],[48.46252,40.31343],[48.51494,40.36099],[48.56438,40.34772],[48.60476,40.32212],[48.64423,40.31797],[48.69214,40.28706],[48.74849,40.30852],[48.76717,40.3302],[48.77188,40.35181],[48.85881,40.34676],[48.87675,40.33657],[48.86981,40.32041],[48.87584,40.307],[48.97942,40.23105],[49.02486,40.17894],[49.16728,40.16639],[49.19168,40.15581],[49.21264,40.13554],[49.22327,40.08946],[49.25399,40.05461],[49.26433,40.01532],[49.30332,39.98916],[49.31816,39.95742],[49.31432,39.93042],[49.34967,39.88167],[49.35077,39.71295],[49.3616,39.67838],[49.32005,39.63094],[49.30327,39.57337],[49.29027,39.55046]]]]}},{"type":"Feature","properties":{"key":"ganja-dashkasan economic region - total","name":"Gəncə-Daşkəsən","district_count":6},"geometry":{"type":"Polygon","coordinates":[[[45.96968,40.30567],[45.90707,40.28968],[45.86162,40.3081],[45.85493,40.32038],[45.8683,40.33709],[45.87632,40.36641],[45.87753,40.41754],[45.83675,40.46874],[45.83789,40.49879],[45.92002,40.54188],[45.93229,40.5508],[45.9397,40.56918],[45.97798,40.58883],[46.041,40.66906],[46.06512,40.67005],[46.07446,40.6576],[46.12257,40.64579],[46.13677,40.66813],[46.22147,40.67924],[46.25714,40.70916],[46.25509,40.73551],[46.27092,40.79328],[46.30631,40.82258],[46.301,40.84463],[46.27704,40.8684],[46.27665,40.87837],[46.29868,40.91415],[46.30177,40.95548],[46.34042,41.01054],[46.34179,41.03116],[46.26274,41.10299],[46.23984,41.13216],[46.1066,41.18041],[46.10969,41.19326],[46.13172,41.20348],[46.27085,41.1956],[46.31105,41.17107],[46.3866,41.10456],[46.43384,41.10605],[46.46303,41.09857],[46.47292,41.06507],[46.49766,41.0675],[46.5454,41.11672],[46.57112,41.12233],[46.58646,41.12139],[46.62777,41.10175],[46.65486,41.11908],[46.65531,41.1071],[46.72271,41.10784],[46.75885,41.08974],[46.76959,41.07606],[46.78236,41.0258],[46.83191,40.9748],[46.79718,40.97209],[46.72048,41.0],[46.70176,41.02928],[46.67217,41.04848],[46.677,41.08185],[46.66674,41.09875],[46.62265,41.06037],[46.53751,41.05579],[46.48018,41.0389],[46.48535,41.02576],[46.52323,41.01669],[46.53676,41.0041],[46.55492,40.94464],[46.53444,40.93233],[46.50275,40.925],[46.40419,40.9335],[46.36593,40.9165],[46.381,40.90653],[46.4382,40.89539],[46.58314,40.91972],[46.60986,40.91763],[46.64288,40.90617],[46.6778,40.90689],[46.69478,40.90188],[46.69986,40.89079],[46.78946,40.86575],[46.79086,40.83627],[46.76711,40.78854],[46.76586,40.7605],[46.78086,40.74838],[46.84244,40.7315],[46.8515,40.7265],[46.85556,40.71366],[46.80493,40.67298],[46.80368,40.64632],[46.81618,40.64109],[46.86025,40.66037],[46.87619,40.66084],[46.90623,40.65358],[46.92464,40.6418],[46.92964,40.62204],[46.91464,40.58678],[46.91214,40.56724],[46.91714,40.55651],[46.93433,40.54197],[46.98215,40.54793],[47.00547,40.53577],[46.97775,40.49108],[46.94975,40.48891],[46.92999,40.47978],[46.90659,40.45227],[46.83826,40.42706],[46.83073,40.41574],[46.74405,40.41096],[46.63003,40.35907],[46.5862,40.34716],[46.56337,40.32692],[46.55715,40.31342],[46.45176,40.26154],[46.4242,40.25823],[46.38951,40.26408],[46.28403,40.29872],[45.96968,40.30567]]]}},{"type":"Feature","properties":{"key":"karabakh economic region - total","name":"Qarabağ","district_count":10},"geometry":{"type":"Polygon","coordinates":[[[47.47573,39.76626],[47.50675,39.7363],[47.55566,39.72464],[47.57197,39.70879],[47.58465,39.67753],[47.64745,39.64812],[47.66376,39.63365],[47.66436,39.60843],[47.64504,39.57292],[47.64745,39.55236],[47.65512,39.54949],[47.63191,39.53091],[47.5674,39.51597],[47.49025,39.483],[47.42404,39.46508],[47.36999,39.39973],[47.3253,39.36604],[47.30572,39.36604],[47.2938,39.38421],[47.24485,39.42416],[47.18909,39.41624],[47.17292,39.42053],[47.17335,39.44198],[47.16483,39.45089],[47.15249,39.45881],[47.09801,39.47003],[47.08074,39.48275],[47.04991,39.47102],[47.05077,39.45089],[47.06907,39.43736],[47.07034,39.42614],[47.01969,39.39907],[47.00139,39.3994],[46.96181,39.41855],[46.94606,39.43604],[46.92946,39.44165],[46.91073,39.47531],[46.84731,39.50037],[46.83284,39.49477],[46.83199,39.48388],[46.86051,39.4532],[46.84944,39.43043],[46.83199,39.41987],[46.81241,39.42086],[46.77155,39.43769],[46.76474,39.48256],[46.77794,39.49905],[46.77496,39.51224],[46.74729,39.52873],[46.70794,39.52349],[46.71621,39.53514],[46.7195,39.56236],[46.69085,39.5749],[46.69064,39.58711],[46.70663,39.59788],[46.76041,39.60414],[46.76311,39.61391],[46.75231,39.64702],[46.73279,39.66018],[46.69687,39.65793],[46.67133,39.64188],[46.66821,39.62036],[46.64475,39.59595],[46.62668,39.59804],[46.61816,39.60462],[46.61609,39.61747],[46.6001,39.62871],[46.57206,39.62004],[46.56064,39.6247],[46.55898,39.66628],[46.58182,39.70366],[46.56438,39.83779],[46.51994,39.88452],[46.46988,39.91159],[46.47799,39.94055],[46.46645,39.95988],[46.5087,39.97326],[46.54621,39.99855],[46.55534,39.99868],[46.58638,39.97186],[46.60531,39.9665],[46.65545,40.01334],[46.68891,40.01813],[46.73844,40.04385],[46.77372,40.04803],[46.78579,40.0651],[46.76568,40.07514],[46.75582,40.1078],[46.72017,40.11857],[46.68283,40.15399],[46.64913,40.1708],[46.64365,40.1829],[46.6219,40.1843],[46.55982,40.15055],[46.55351,40.19677],[46.53328,40.21705],[46.52498,40.24548],[46.54911,40.29118],[46.54467,40.30614],[46.5862,40.34716],[46.63003,40.35907],[46.74405,40.41096],[46.83073,40.41574],[46.83826,40.42706],[46.90659,40.45227],[46.92999,40.47978],[46.94975,40.48891],[46.97775,40.49108],[46.97666,40.46307],[46.99131,40.44106],[47.00547,40.43397],[47.01622,40.43733],[47.03819,40.45113],[47.04739,40.48088],[47.06608,40.49984],[47.08689,40.50479],[47.11282,40.49649],[47.12562,40.48351],[47.15083,40.48657],[47.17343,40.49878],[47.2243,40.55463],[47.23205,40.5493],[47.24249,40.51214],[47.29428,40.46345],[47.31283,40.45518],[47.34143,40.40763],[47.3708,40.38577],[47.36958,40.36947],[47.39803,40.35964],[47.42795,40.32027],[47.45382,40.31276],[47.4508,40.29764],[47.45853,40.28077],[47.49216,40.26685],[47.50027,40.20791],[47.54163,40.159],[47.57989,40.17116],[47.62279,40.16671],[47.67188,40.17976],[47.70125,40.1762],[47.71014,40.20376],[47.71709,40.20643],[47.7426,40.19576],[47.76657,40.15752],[47.78057,40.14638],[47.75806,40.11896],[47.71246,40.04028],[47.71246,39.99541],[47.70318,39.95973],[47.68849,39.93831],[47.66912,39.9234],[47.60902,39.91311],[47.58799,39.9013],[47.53877,39.90016],[47.47421,39.86128],[47.47273,39.84622],[47.48658,39.8304],[47.45145,39.7993],[47.48188,39.78003],[47.47573,39.76626]]]}},{"type":"Feature","properties":{"key":"central aran economic region - total","name":"Mərkəzi Aran","district_count":8},"geometry":{"type":"Polygon","coordinates":[[[47.80028,40.11212],[47.7971,40.13557],[47.76657,40.15752],[47.7426,40.19576],[47.71709,40.20643],[47.71014,40.20376],[47.70125,40.1762],[47.67188,40.17976],[47.62279,40.16671],[47.57989,40.17116],[47.54163,40.159],[47.50027,40.20791],[47.49216,40.26685],[47.45853,40.28077],[47.4508,40.29764],[47.45382,40.31276],[47.42795,40.32027],[47.39803,40.35964],[47.36958,40.36947],[47.3708,40.38577],[47.34143,40.40763],[47.31283,40.45518],[47.29428,40.46345],[47.24249,40.51214],[47.23205,40.5493],[47.2243,40.55463],[47.17343,40.49878],[47.15083,40.48657],[47.12562,40.48351],[47.11282,40.49649],[47.08689,40.50479],[47.06608,40.49984],[47.04739,40.48088],[47.03819,40.45113],[47.00547,40.43397],[46.99131,40.44106],[46.97666,40.46307],[46.97568,40.48582],[47.00547,40.53577],[46.98215,40.54793],[46.93433,40.54197],[46.91714,40.55651],[46.91214,40.56724],[46.91464,40.58678],[46.92964,40.62204],[46.92464,40.6418],[46.90623,40.65358],[46.87619,40.66084],[46.86025,40.66037],[46.81618,40.64109],[46.80368,40.64632],[46.80493,40.67298],[46.85556,40.71366],[46.8515,40.7265],[46.84244,40.7315],[46.78086,40.74838],[46.76586,40.7605],[46.76711,40.78854],[46.79086,40.83627],[46.78976,40.8673],[46.82117,40.87307],[46.85218,40.85864],[46.89058,40.85105],[46.91739,40.84072],[46.97724,40.80237],[46.99144,40.80182],[47.01384,40.78917],[47.04985,40.80109],[47.17603,40.79118],[47.17203,40.79847],[47.13905,40.8092],[47.07623,40.84885],[46.97121,40.88325],[46.9062,40.91859],[46.84556,40.96717],[46.86025,40.96883],[46.94902,40.92641],[46.97649,40.93564],[47.02056,40.90471],[47.07099,40.88598],[47.08977,40.88598],[47.16757,40.84117],[47.19171,40.84117],[47.23142,40.81794],[47.33282,40.79715],[47.36823,40.79878],[47.42403,40.78206],[47.44818,40.79552],[47.47178,40.78369],[47.49861,40.78002],[47.52061,40.76615],[47.55367,40.77084],[47.56752,40.7576],[47.57909,40.67954],[47.63154,40.65972],[47.66105,40.67191],[47.77332,40.68402],[47.80257,40.6721],[47.92462,40.66766],[48.03125,40.64808],[48.07204,40.63032],[48.08781,40.61178],[48.08781,40.58983],[48.05422,40.5595],[48.0573,40.53649],[48.07513,40.5289],[48.0981,40.54355],[48.13546,40.54151],[48.13674,40.5308],[48.12251,40.511],[48.12084,40.49056],[48.12084,40.4765],[48.13423,40.45156],[48.1811,40.47074],[48.20537,40.46819],[48.20537,40.43494],[48.22881,40.42982],[48.26648,40.45988],[48.33176,40.46179],[48.35771,40.45348],[48.36859,40.4375],[48.36692,40.38119],[48.4096,40.3575],[48.41463,40.34278],[48.45396,40.31203],[48.46252,40.31343],[48.48653,40.26338],[48.48413,40.19295],[48.50064,40.16608],[48.43813,40.14629],[48.40686,40.11189],[48.3822,40.10628],[48.36205,40.08627],[48.35024,40.04891],[48.33981,40.03983],[48.27528,40.02252],[48.24651,40.0475],[48.19337,40.07581],[48.15895,40.08045],[48.12815,40.1143],[48.10218,40.1143],[48.09011,40.1398],[48.0732,40.15463],[48.03334,40.14953],[48.011,40.11662],[47.99348,40.11894],[47.99952,40.09807],[47.99107,40.07859],[47.9808,40.07581],[47.95181,40.09111],[47.93611,40.09065],[47.90833,40.07673],[47.8872,40.09111],[47.88004,40.11093],[47.80792,40.10204],[47.80028,40.11212]]]}},{"type":"Feature","properties":{"key":"mil-mughan economic region - total","name":"Mil-Muğan","district_count":4},"geometry":{"type":"Polygon","coordinates":[[[48.57935,39.66248],[48.54761,39.65139],[48.50811,39.65283],[48.49684,39.66111],[48.49545,39.67595],[48.48321,39.68713],[48.44592,39.69842],[48.42588,39.69036],[48.40282,39.6692],[48.39369,39.6477],[48.34391,39.61138],[48.31456,39.59709],[48.2826,39.59659],[48.23934,39.61323],[48.15977,39.66063],[48.05433,39.73721],[48.0265,39.74779],[47.99346,39.74947],[47.96846,39.73839],[47.95846,39.72177],[47.98419,39.70787],[47.96715,39.68526],[47.9401,39.6757],[47.92,39.66047],[47.8914,39.66047],[47.87826,39.66823],[47.83923,39.66405],[47.81797,39.6536],[47.8067,39.65708],[47.76642,39.63038],[47.72838,39.58788],[47.66497,39.54581],[47.64745,39.55236],[47.64504,39.57292],[47.66436,39.60843],[47.66376,39.63365],[47.64745,39.64812],[47.58465,39.67753],[47.57197,39.70879],[47.55566,39.72464],[47.50675,39.7363],[47.48742,39.75122],[47.47573,39.76626],[47.48188,39.78003],[47.45145,39.7993],[47.48658,39.8304],[47.4705,39.8529],[47.48237,39.86891],[47.53877,39.90016],[47.58799,39.9013],[47.60902,39.91311],[47.66912,39.9234],[47.68849,39.93831],[47.70318,39.95973],[47.71246,39.99541],[47.71246,40.04028],[47.75806,40.11896],[47.78057,40.14638],[47.7971,40.13557],[47.79555,40.1237],[47.80792,40.10204],[47.88004,40.11093],[47.8872,40.09111],[47.90833,40.07673],[47.93611,40.09065],[47.95181,40.09111],[47.9808,40.07581],[47.99107,40.07859],[47.99952,40.09807],[47.99348,40.11894],[48.011,40.11662],[48.03334,40.14953],[48.0732,40.15463],[48.09011,40.1398],[48.10218,40.1143],[48.12815,40.1143],[48.15895,40.08045],[48.19337,40.07581],[48.24651,40.0475],[48.27528,40.02252],[48.33981,40.03983],[48.35024,40.04891],[48.36205,40.08627],[48.3822,40.10628],[48.40686,40.11189],[48.42041,40.12175],[48.43813,40.14629],[48.50064,40.16608],[48.61784,40.15903],[48.69155,40.12614],[48.67578,40.08849],[48.68351,40.0619],[48.81099,40.02733],[48.83965,40.01051],[48.84651,39.99179],[48.88079,39.95961],[48.8926,39.95961],[48.9065,39.93451],[48.88833,39.90059],[48.92493,39.87505],[48.92533,39.86762],[48.90764,39.84619],[48.9108,39.82938],[48.94776,39.80063],[48.94966,39.78747],[48.9326,39.7548],[48.94587,39.69014],[48.92186,39.67598],[48.88678,39.66622],[48.88363,39.6479],[48.89595,39.63886],[48.895,39.62836],[48.88647,39.62371],[48.82423,39.64326],[48.76133,39.62677],[48.73807,39.64529],[48.68427,39.65458],[48.67159,39.66643],[48.61252,39.67947],[48.59689,39.6792],[48.57935,39.66248]]]}},{"type":"Feature","properties":{"key":"lankaran-astara economic region - total","name":"Lənkəran-Astara","district_count":8},"geometry":{"type":"MultiPolygon","coordinates":[[[[48.86933,38.60006],[48.88084,38.52415],[48.88084,38.43767],[48.84115,38.44631],[48.76072,38.40668],[48.71505,38.40645],[48.68529,38.39115],[48.63197,38.39602],[48.5919,38.41526],[48.54122,38.49727],[48.49866,38.55192],[48.46746,38.57157],[48.46437,38.58757],[48.45016,38.606],[48.35315,38.59145],[48.29816,38.62902],[48.28425,38.6472],[48.23266,38.67457],[48.23729,38.6845],[48.26139,38.69733],[48.25645,38.71549],[48.23482,38.73146],[48.20671,38.7409],[48.19312,38.75541],[48.10877,38.77065],[48.10043,38.79145],[48.04977,38.8016],[48.02629,38.81804],[48.00837,38.87313],[48.01331,38.90741],[48.03123,38.90234],[48.04668,38.90693],[48.06707,38.91876],[48.08066,38.93975],[48.22185,38.95736],[48.28209,38.974],[48.3411,39.02559],[48.30452,39.10823],[48.27715,39.13536],[48.22739,39.14812],[48.17578,39.18633],[48.13496,39.23094],[48.12848,39.26645],[48.1417,39.29325],[48.21004,39.33139],[48.24597,39.33965],[48.28039,39.36323],[48.31937,39.37855],[48.33253,39.37737],[48.34265,39.36716],[48.34367,39.34869],[48.35075,39.33925],[48.38011,39.33808],[48.40896,39.35694],[48.48793,39.38955],[48.50362,39.41429],[48.52133,39.42371],[48.53956,39.42371],[48.55322,39.41586],[48.56638,39.35969],[48.59321,39.34279],[48.61953,39.33886],[48.64332,39.36126],[48.63978,39.40604],[48.69313,39.46084],[48.74005,39.43883],[48.73131,39.4129],[48.71289,39.39392],[48.70511,39.36108],[48.70886,39.31437],[48.72066,39.28731],[48.73444,39.27459],[48.73713,39.25886],[48.73983,39.22634],[48.72994,39.20255],[48.72949,39.177],[48.76861,39.16334],[48.79785,39.17245],[48.82888,39.16475],[48.85046,39.18015],[48.86575,39.20115],[48.89768,39.21864],[48.92827,39.25606],[49.00922,39.29626],[49.02406,39.29521],[49.03845,39.28228],[49.05014,39.24732],[49.06228,39.23438],[49.10276,39.23403],[49.16662,39.20534],[49.20394,39.20255],[49.21474,39.19345],[49.20035,39.10697],[49.1941,39.10588],[49.16905,39.1275],[49.11865,39.11058],[49.10115,39.11199],[49.09421,39.12022],[49.10537,39.14584],[49.07368,39.16017],[49.0755,39.18813],[49.06373,39.19517],[49.04079,39.194],[48.96866,39.15735],[48.94512,39.13785],[48.93491,39.06118],[48.94151,39.0108],[48.9335,38.95485],[48.92265,38.9195],[48.88917,38.85426],[48.86371,38.85795],[48.85852,38.86569],[48.86574,38.89652],[48.85578,38.9069],[48.88415,38.92104],[48.91101,38.9531],[48.91041,38.97643],[48.90437,38.98444],[48.89389,38.98981],[48.86772,38.98069],[48.85658,38.96613],[48.85296,38.94774],[48.83274,38.92218],[48.8348,38.84098],[48.84907,38.8064],[48.86703,38.78335],[48.87498,38.73998],[48.86723,38.72878],[48.87808,38.6647],[48.86933,38.60006]]],[[[49.16221,39.01374],[49.15419,38.9913],[49.16958,38.96219],[49.16302,38.95475],[49.09179,38.94744],[49.07459,38.95051],[49.06222,38.96158],[49.06161,38.97242],[49.09541,38.98467],[49.19694,39.0524],[49.19097,39.02993],[49.16221,39.01374]]]]}},{"type":"Feature","properties":{"key":"eastern zangazur economic region - total","name":"Şərqi Zəngəzur","district_count":5},"geometry":{"type":"Polygon","coordinates":[[[46.89603,39.16882],[46.86635,39.14951],[46.76066,39.04869],[46.76038,39.03318],[46.73878,39.00963],[46.71026,38.99668],[46.67451,38.96579],[46.62131,38.93222],[46.57789,38.88766],[46.53192,38.87302],[46.51618,38.90794],[46.50639,38.95316],[46.52767,38.99668],[46.5349,39.06208],[46.50979,39.0999],[46.43568,39.16732],[46.42914,39.2004],[46.44876,39.21142],[46.48226,39.20866],[46.50841,39.20103],[46.51223,39.18768],[46.52884,39.17432],[46.54709,39.17538],[46.5648,39.18259],[46.57678,39.21184],[46.59497,39.22473],[46.57151,39.22945],[46.52043,39.2695],[46.52001,39.31249],[46.41743,39.34357],[46.37466,39.3985],[46.36567,39.44139],[46.38501,39.45153],[46.45121,39.44899],[46.47109,39.46462],[46.51768,39.48248],[46.50271,39.51606],[46.54278,39.53391],[46.55732,39.54854],[46.55192,39.55609],[46.50956,39.56992],[46.45411,39.56558],[46.42338,39.56992],[46.41466,39.59273],[46.44622,39.60976],[46.42504,39.62406],[46.38995,39.63176],[46.34509,39.63369],[46.25829,39.60157],[46.19952,39.60077],[46.17668,39.58502],[46.17107,39.62197],[46.1607,39.63842],[46.10003,39.67303],[46.07666,39.67679],[46.06693,39.68506],[46.06336,39.71088],[46.04,39.73594],[45.96797,39.78502],[45.94071,39.78802],[45.92647,39.79688],[45.87812,39.80061],[45.85633,39.81061],[45.84129,39.82441],[45.80705,39.88658],[45.80524,39.91754],[45.79953,39.92533],[45.69604,39.96885],[45.66362,39.97464],[45.61953,39.97144],[45.60993,39.97743],[45.598,39.99998],[45.60163,40.00975],[45.6229,40.0269],[45.73936,40.03308],[45.76244,40.0257],[45.79279,40.0257],[45.82754,40.00416],[45.86671,40.00077],[45.90172,40.04205],[45.92662,40.1096],[45.95826,40.12612],[45.96916,40.1516],[45.98835,40.16812],[45.99017,40.18543],[45.98083,40.21487],[45.94296,40.24786],[45.94063,40.25701],[45.95178,40.27052],[45.92921,40.29574],[45.9427,40.30111],[46.02233,40.30826],[46.28403,40.29872],[46.38951,40.26408],[46.4242,40.25823],[46.47151,40.26866],[46.48728,40.28201],[46.54467,40.30614],[46.54911,40.29118],[46.52498,40.24548],[46.53328,40.21705],[46.55351,40.19677],[46.55982,40.15055],[46.6219,40.1843],[46.64365,40.1829],[46.64913,40.1708],[46.68283,40.15399],[46.72017,40.11857],[46.75582,40.1078],[46.76568,40.07514],[46.78579,40.0651],[46.77372,40.04803],[46.73844,40.04385],[46.68891,40.01813],[46.65545,40.01334],[46.60531,39.9665],[46.58638,39.97186],[46.55534,39.99868],[46.54621,39.99855],[46.5087,39.97326],[46.46645,39.95988],[46.47799,39.94055],[46.46988,39.91159],[46.51994,39.88452],[46.56438,39.83779],[46.58182,39.70366],[46.55898,39.66628],[46.56064,39.6247],[46.57206,39.62004],[46.6001,39.62871],[46.61609,39.61747],[46.61816,39.60462],[46.62668,39.59804],[46.64475,39.59595],[46.66821,39.62036],[46.67133,39.64188],[46.69687,39.65793],[46.73279,39.66018],[46.75231,39.64702],[46.76311,39.61391],[46.76041,39.60414],[46.70663,39.59788],[46.69064,39.58711],[46.69085,39.5749],[46.7195,39.56236],[46.71621,39.53514],[46.70794,39.52349],[46.74729,39.52873],[46.77496,39.51224],[46.77794,39.49905],[46.76474,39.48256],[46.77155,39.43769],[46.81241,39.42086],[46.83199,39.41987],[46.84944,39.43043],[46.86051,39.4532],[46.83199,39.48388],[46.83284,39.49477],[46.84731,39.50037],[46.91073,39.47531],[46.92946,39.44165],[47.00139,39.3994],[47.01969,39.39907],[47.07034,39.42614],[47.06907,39.43736],[47.05077,39.45089],[47.04991,39.47102],[47.08074,39.48275],[47.09801,39.47003],[47.15249,39.45881],[47.16483,39.45089],[47.17335,39.44198],[47.17292,39.42053],[47.18909,39.41624],[47.24485,39.42416],[47.2938,39.38421],[47.29806,39.37165],[47.31431,39.36604],[47.24528,39.31415],[47.18356,39.29894],[47.11461,39.26784],[47.0729,39.21257],[47.06098,39.18111],[46.99841,39.13538],[46.94819,39.14101],[46.94478,39.15294],[46.9252,39.1652],[46.89603,39.16882]]]}},{"type":"Feature","properties":{"key":"gazakh-tovuz economic region - total","name":"Qazax-Tovuz","district_count":5},"geometry":{"type":"MultiPolygon","coordinates":[[[[45.93229,40.5508],[45.83789,40.49879],[45.83675,40.46874],[45.87753,40.41754],[45.87632,40.36641],[45.8683,40.33709],[45.85493,40.32038],[45.85966,40.31169],[45.84513,40.31151],[45.75022,40.34868],[45.6513,40.37731],[45.64818,40.39094],[45.62501,40.41309],[45.58665,40.43236],[45.55728,40.43628],[45.51222,40.467],[45.47172,40.47941],[45.44292,40.50946],[45.44035,40.5806],[45.39216,40.61886],[45.37277,40.65774],[45.3722,40.67837],[45.38588,40.69943],[45.39986,40.70051],[45.40071,40.72395],[45.42581,40.74477],[45.4703,40.75258],[45.48245,40.7479],[45.5011,40.76754],[45.53132,40.7747],[45.55756,40.79334],[45.58351,40.82151],[45.5956,40.84458],[45.59292,40.87773],[45.48821,40.92371],[45.46014,40.95945],[45.42014,40.97484],[45.40846,40.98452],[45.41722,41.01177],[45.40682,41.022],[45.37652,41.01574],[45.36899,41.00235],[45.33148,41.00158],[45.27723,41.03192],[45.21893,41.03652],[45.19256,41.06109],[45.17482,41.06761],[45.1368,41.06224],[45.06531,41.06607],[45.04554,41.07567],[45.05061,41.09523],[45.0937,41.11517],[45.17989,41.12936],[45.19206,41.13817],[45.19346,41.16018],[45.18827,41.17024],[45.13051,41.20333],[45.09644,41.20676],[45.06302,41.19598],[45.01402,41.20406],[45.01435,41.23199],[45.0296,41.2484],[45.03122,41.26089],[45.02928,41.27876],[45.01889,41.29296],[45.02246,41.30323],[45.09612,41.333],[45.09743,41.34314],[45.11971,41.37034],[45.15892,41.40087],[45.15892,41.42536],[45.21194,41.44045],[45.25026,41.46995],[45.33849,41.45856],[45.38884,41.43039],[45.47796,41.45018],[45.55416,41.41195],[45.56218,41.39114],[45.57688,41.38376],[45.60763,41.39685],[45.63124,41.39651],[45.67981,41.37235],[45.72268,41.37227],[45.75633,41.35809],[45.75462,41.35078],[45.7358,41.34885],[45.71869,41.33789],[45.69331,41.30027],[45.71869,41.27617],[45.7915,41.23497],[45.86983,41.21634],[45.95767,41.18295],[46.05662,41.19696],[46.08514,41.18209],[46.10675,41.1828],[46.23984,41.13216],[46.26274,41.10299],[46.34179,41.03116],[46.34042,41.01054],[46.30177,40.95548],[46.29868,40.91415],[46.27665,40.87837],[46.27704,40.8684],[46.301,40.84463],[46.30631,40.82258],[46.27092,40.79328],[46.25509,40.73551],[46.25714,40.70916],[46.22147,40.67924],[46.13677,40.66813],[46.12257,40.64579],[46.07446,40.6576],[46.06512,40.67005],[46.041,40.66906],[46.00703,40.61987],[45.97798,40.58883],[45.9397,40.56918],[45.93229,40.5508]],[[45.478,40.68402],[45.47629,40.65731],[45.4914,40.63841],[45.52676,40.63363],[45.53418,40.65057],[45.52863,40.66796],[45.48921,40.69024],[45.478,40.68402]],[[45.9638,40.99318],[45.9866,40.98454],[46.02079,40.95766],[46.06829,40.94134],[46.13034,40.92885],[46.16595,40.92899],[46.16839,40.93636],[46.16514,40.96095],[46.1465,40.97262],[46.05734,40.98552],[46.0387,40.99412],[46.03685,41.00073],[46.00672,41.0041],[45.97734,41.01793],[45.94512,41.01425],[45.83932,41.06133],[45.81394,41.06413],[45.80481,41.05204],[45.85842,41.02052],[45.9032,40.98682],[45.9045,40.97966],[45.93531,40.99318],[45.9638,40.99318]]],[[[45.19897,40.98708],[45.18794,40.99494],[45.18567,41.00748],[45.19378,41.01313],[45.20676,41.01584],[45.23694,41.00625],[45.23239,40.9829],[45.19897,40.98708]]],[[[44.98115,41.06723],[44.99028,41.08257],[45.00599,41.08526],[45.0212,41.07912],[45.02729,41.06876],[45.01563,41.05149],[44.99991,41.04842],[44.98115,41.06723]]]]}},{"type":"Feature","properties":{"key":"nakhchivan autonomous republic - total","name":"Naxçıvan MR","district_count":8},"geometry":{"type":"MultiPolygon","coordinates":[[[[46.00126,39.28233],[45.99672,39.20113],[46.02245,39.13869],[46.03304,39.07561],[46.07693,39.03431],[46.08752,38.97764],[46.13519,38.90259],[46.142,38.84521],[46.0512,38.87657],[46.0285,38.87302],[45.96267,38.90081],[45.94299,38.90022],[45.92559,38.8813],[45.90213,38.88071],[45.85295,38.91205],[45.82268,38.90672],[45.80831,38.91737],[45.77908,38.92444],[45.73096,38.92854],[45.65915,38.95022],[45.63435,38.95007],[45.59389,38.96401],[45.5802,38.97686],[45.56057,38.96834],[45.52835,38.96882],[45.45644,38.98817],[45.43722,39.00293],[45.43784,39.04282],[45.40282,39.0636],[45.30814,39.15872],[45.27107,39.17463],[45.24988,39.17581],[45.20902,39.19936],[45.16211,39.2076],[45.14168,39.21761],[45.12957,39.23409],[45.12352,39.27939],[45.10687,39.28938],[45.0449,39.37199],[44.98441,39.39889],[44.93637,39.43375],[44.93544,39.44817],[44.91096,39.47868],[44.9091,39.50414],[44.87484,39.54172],[44.8685,39.60538],[44.84184,39.61641],[44.79783,39.62072],[44.79132,39.62768],[44.81767,39.66673],[44.80465,39.67966],[44.77273,39.69355],[44.76595,39.70064],[44.76515,39.71565],[44.88357,39.74445],[44.89468,39.74353],[44.90559,39.73373],[44.94962,39.72837],[45.00675,39.74797],[45.05773,39.78654],[45.10157,39.79282],[45.11942,39.78394],[45.12973,39.76986],[45.14421,39.71902],[45.16782,39.7109],[45.17912,39.69941],[45.1821,39.64868],[45.17674,39.60419],[45.18607,39.58823],[45.20828,39.59023],[45.22594,39.60726],[45.24696,39.61662],[45.27334,39.62],[45.29873,39.61309],[45.3029,39.57918],[45.33196,39.55088],[45.43,39.52468],[45.46856,39.49371],[45.56771,39.56725],[45.60118,39.57013],[45.62102,39.56245],[45.65418,39.5838],[45.72112,39.59963],[45.79148,39.58644],[45.81906,39.56461],[45.8265,39.52262],[45.8218,39.48087],[45.83767,39.45981],[45.80098,39.40859],[45.7984,39.37765],[45.80846,39.36174],[45.88198,39.34068],[45.92847,39.31901],[45.94312,39.30449],[46.00126,39.28233]]],[[[44.93019,39.78654],[44.93177,39.80093],[44.94229,39.80368],[44.96291,39.80246],[44.97025,39.78807],[44.95518,39.77246],[44.93019,39.78654]]]]}}]}